OBJECT_NAME,OBJECT_ID,EPOCH,MEAN_MOTION,ECCENTRICITY,INCLINATION,RA_OF_ASC_NODE,ARG_OF_PERICENTER,MEAN_ANOMALY,EPHEMERIS_TYPE,CLASSIFICATION_TYPE,NORAD_CAT_ID,ELEMENT_SET_NO,REV_AT_EPOCH,BSTAR,MEAN_MOTION_DOT,MEAN_MOTION_DDOT
CINEMA,2012-048G,2026-06-04T23:46:03.489024,15.47293838,.0044852,64.6422,126.8275,180.9783,179.1276,0,U,38764,999,11535,.55028E-3,.29212E-3,0
AEROCUBE 4.5A,2012-048K,2026-06-05T00:50:05.881920,15.87334447,.001889,64.6278,71.0977,214.1459,145.8485,0,U,38767,999,37072,.1044E-2,.278208E-2,.34355E-4
METOP-B,2012-049A,2026-06-05T01:58:31.077696,14.21429418,.0002888,98.6509,207.8225,47.0763,313.0657,0,U,38771,999,71154,.78072E-4,.127E-5,0
BEIDOU-2 M6,2012-050B,2026-06-01T06:12:54.994176,1.86231095,.00140065,56.5308,63.4210,354.6899,5.3055,0,U,38775,999,9301,0,-.64E-6,0
ASTRA 2F,2012-051A,2026-06-05T03:23:03.995808,1.00272210,.000083,0.0519,257.6319,265.9490,168.9418,0,U,38778,999,4101,0,.162E-5,0
GSAT-10,2012-051B,2026-06-05T03:38:40.002432,1.00272286,.000807,0.0217,261.4881,186.6616,303.1346,0,U,38779,999,4997,0,-.153E-5,0
VRSS-1,2012-052A,2026-06-05T04:24:32.969088,14.79999491,.0016175,97.6151,133.1302,278.0756,81.8621,0,U,38782,999,73783,.18581E-3,.1359E-4,0
NAVSTAR 67 (USA 239),2012-053A,2026-06-04T08:29:01.163616,2.00567337,.01795711,53.5835,144.1250,65.5761,296.2750,0,U,38833,999,9918,0,.65E-6,0
GSAT0103 (GALILEO-FM3),2012-055A,2026-06-03T23:37:05.593728,1.70473522,.00051737,55.7975,101.9078,302.0850,57.8240,0,U,38857,999,8478,0,.12E-6,0
SJ-9A,2012-056A,2026-06-05T04:10:59.790432,14.85449650,.0024171,97.6702,128.5611,298.8652,61.0138,0,U,38860,999,69780,.15033E-3,.125E-4,0
SJ-9B,2012-056B,2026-06-03T13:23:45.575232,14.91270503,.0013596,97.5971,139.1647,259.2401,100.7287,0,U,38861,999,73769,.24113138E-3,.235E-4,0
INTELSAT 23 (IS-23),2012-057A,2026-06-05T04:35:20.186304,1.00268022,.0000265,0.0117,307.8410,187.9542,133.6532,0,U,38867,999,4983,0,-.272E-5,0
BEIDOU-2 G6,2012-059A,2026-06-04T08:49:39.241920,1.00268705,.00103879,4.3894,73.6602,326.1663,69.3340,0,U,38953,999,4978,0,-.163E-5,0
LUCH-5B,2012-061A,2026-06-05T01:28:33.080736,1.00274355,.0001658,10.4553,49.9998,139.2463,70.0738,0,U,38977,999,4948,0,-.128E-5,0
YAMAL 300K,2012-061B,2026-06-04T17:51:12.100320,1.00276458,.00010397,0.0134,279.9499,293.9935,130.0040,0,U,38978,999,4950,0,.84E-6,0
STAR ONE C3,2012-062A,2026-06-05T03:30:00.304704,1.00270998,.0002653,0.0183,331.6237,117.4877,141.9866,0,U,38991,999,4964,0,-.237E-5,0
EUTELSAT 21B,2012-062B,2026-06-04T17:40:45.388416,1.00269313,.00030482,0.0666,345.4341,82.7446,111.7781,0,U,38992,999,4970,0,.142E-5,0
ECHOSTAR 16,2012-065A,2026-06-04T16:39:32.642784,1.00274798,.0002093,0.0149,353.7381,95.7243,352.0763,0,U,39008,999,4951,0,0,0
YAOGAN-16 01A,2012-066A,2026-06-04T16:39:21.637152,13.45515989,.0434415,63.3548,322.0720,27.0465,335.2492,0,U,39011,999,66446,.32137E-4,-.57E-6,0
YAOGAN-16 01B,2012-066B,2026-06-04T16:45:55.230624,13.45512906,.0434482,63.3549,322.2800,26.7950,335.4819,0,U,39012,999,66442,.64828E-5,-.84E-6,0
YAOGAN-16 01C,2012-066C,2026-06-05T03:27:44.940096,13.45504453,.0434733,63.3555,320.6226,26.3596,335.8854,0,U,39013,999,66451,.38586E-4,-.5E-6,0
ZHONGXING-12,2012-067A,2026-06-05T04:17:21.789888,1.00271975,.0003368,0.0477,97.3258,333.6896,334.4514,0,U,39017,999,4938,0,-.195E-5,0
PLEIADES 1B,2012-068A,2026-06-05T03:25:44.293728,14.58553150,.0001527,98.1946,231.3598,95.4247,264.7126,0,U,39019,999,71909,.98276E-4,.411E-5,0
EUTELSAT 70B,2012-069A,2026-06-05T03:35:10.337280,1.00271380,.0003957,0.0617,348.6935,78.5797,310.5930,0,U,39020,999,4938,0,-.31E-6,0
YAMAL 402,2012-070A,2026-06-05T05:13:20.963136,1.00272817,.0004026,1.2340,84.3105,347.6632,314.9181,0,U,39022,999,4927,0,.98E-6,0
GOKTURK 2,2012-073A,2026-06-05T03:29:44.694816,14.75530395,.0001987,97.6820,354.1804,63.0998,297.0415,0,U,39030,999,72273,.79017E-4,.491E-5,0
SKYNET 5D,2012-075A,2026-06-05T03:30:03.326112,1.00272030,.0003955,0.0661,355.1748,86.8552,276.8410,0,U,39034,999,4903,0,.111E-5,0
MEXSAT 3,2012-075B,2026-06-05T02:42:17.535744,1.00276481,.0001042,0.0134,31.8031,39.4211,108.1185,0,U,39035,999,693,0,-.14E-6,0
COSMOS 2482 (RODNIK-S 4),2013-001A,2026-06-05T03:03:06.050304,12.42996056,.002838,82.4989,227.8595,53.4575,306.9112,0,U,39057,999,60721,.13158E-3,.28E-6,0
COSMOS 2483 (RODNIK-S 5),2013-001B,2026-06-05T05:07:26.380992,12.44025346,.0017299,82.4997,222.3683,43.0271,317.2158,0,U,39058,999,60010,.11368E-2,.17E-5,0
COSMOS 2484 (RODNIK-S 6),2013-001C,2026-06-05T03:39:39.031776,12.42938853,.0027284,82.5023,229.3739,62.1724,298.2116,0,U,39059,999,60706,.32712E-3,.55E-6,0
TDRS 11,2013-004A,2026-06-05T00:42:40.133952,1.00278493,.0004992,3.5036,31.0624,20.9854,37.8699,0,U,39070,999,4657,0,.92E-6,0
GLOBALSTAR M097,2013-005A,2026-06-04T15:38:18.470688,12.62251206,.00005032,52.0053,281.4942,122.1604,237.9312,0,U,39072,999,61532,.21469665E-4,-.1E-5,0
GLOBALSTAR M093,2013-005B,2026-06-05T00:30:07.793856,12.62265561,.0000361,52.0113,273.7130,105.5962,254.4945,0,U,39073,999,61532,.14358E-3,-.78E-6,0
GLOBALSTAR M094,2013-005C,2026-06-04T18:47:57.386112,12.62268511,.0000097,51.9934,188.5662,305.5315,54.5542,0,U,39074,999,61690,.12073E-4,-.102E-5,0
GLOBALSTAR M096,2013-005D,2026-06-04T17:13:17.202144,12.62265341,.00002798,52.0066,237.5578,156.7854,203.3025,0,U,39075,999,61581,.20147789E-3,-.68E-6,0
GLOBALSTAR M078,2013-005E,2026-06-02T18:57:43.979904,12.62260079,.00006887,51.9888,327.4521,179.3666,180.7202,0,U,39076,999,61419,.22146231E-4,-.1E-5,0
GLOBALSTAR M095,2013-005F,2026-06-05T04:37:04.096128,12.62263322,.0000414,52.0094,317.7242,120.4467,239.6441,0,U,39077,999,61435,.62223E-4,-.93E-6,0
AMAZONAS 3,2013-006A,2026-06-05T04:17:09.941856,1.00271563,.0002222,0.0360,181.0953,283.5516,152.2752,0,U,39078,999,4479,0,-.27E-5,0
AZERSPACE 1,2013-006B,2026-06-05T03:37:38.548704,1.00271494,.0001481,0.0263,62.8500,35.6849,255.4521,0,U,39079,999,4868,0,.145E-5,0
LANDSAT 8,2013-008A,2026-06-05T01:49:40.414080,14.57110594,.0001452,98.2303,226.3548,97.5582,262.5781,0,U,39084,999,69613,.97401E-4,.393E-5,0
SARAL,2013-009A,2026-06-05T02:23:47.356224,14.32852953,.0001397,98.5558,342.8204,1.8850,358.2339,0,U,39086,999,69387,.44994E-4,.79E-6,0
SAPPHIRE,2013-009C,2026-06-05T00:45:17.399232,14.35237184,.0010016,98.4258,335.7762,287.0384,72.9704,0,U,39088,999,69483,.56695E-4,.119E-5,0
NEOSSAT,2013-009D,2026-06-05T00:20:40.734240,14.35822139,.0009816,98.4175,336.3369,284.6040,75.4057,0,U,39089,999,69499,.67873E-4,.154E-5,0
STRAND-1,2013-009E,2026-06-05T00:16:26.065056,14.37155961,.0007387,98.3919,336.5458,267.1306,92.9036,0,U,39090,999,69531,.12165E-3,.319E-5,0
BRITE-AUSTRIA,2013-009F,2026-06-05T00:27:25.036992,14.36537181,.0008967,98.3993,335.7563,277.6198,82.3970,0,U,39091,999,69530,.83363E-4,.202E-5,0
SBIRS GEO-2 (USA 241),2013-011A,2026-06-05T02:14:46.550112,1.00271477,.0002106,4.4647,52.5023,13.0549,171.8606,0,U,39120,999,4841,0,-.275E-5,0
EUTELSAT 117 WEST A,2013-012A,2026-06-05T04:42:42.035904,1.00271954,.0002952,0.0370,55.4842,21.8256,130.1936,0,U,39122,999,4831,0,-.1E-7,0
ANIK G1,2013-014A,2026-06-05T02:44:24.833184,1.00272186,.0001872,0.0395,82.6325,344.6410,120.0761,0,U,39127,999,4813,0,-.62E-6,0
GAOFEN-1,2013-018A,2026-06-05T04:53:20.302944,14.76521644,.0016078,97.9095,228.5143,308.7290,51.2482,0,U,39150,999,70647,-.18541E-4,-.181E-5,0
NEE-01 PEGASO,2013-018B,2026-06-03T11:09:53.669664,14.93586684,.00121772,98.1207,298.1637,203.9081,156.1574,0,U,39151,999,70865,.30779545E-3,.319E-4,0
COSMOS 2485 [GLONASS-M],2013-019A,2026-06-04T05:45:35.146368,2.13103447,.0023537,65.4131,74.0386,235.1872,124.6092,0,U,39155,999,10200,0,-.1E-6,0
ZHONGXING-11,2013-020A,2026-06-05T04:27:21.852576,1.00269958,.0002528,0.0239,22.3913,52.3434,343.6198,0,U,39157,999,4777,0,-.278E-5,0
PROBA-V,2013-021A,2026-06-05T02:24:38.880000,14.23594358,.0004555,98.3579,135.3042,153.1318,207.0098,0,U,39159,999,67939,.56427E-4,.88E-6,0
VNREDSAT 1,2013-021B,2026-06-05T03:14:43.725984,14.64844418,.0001632,97.9081,210.0136,91.2433,268.8957,0,U,39160,999,69852,.14394E-3,.723E-5,0
EUTELSAT 7B,2013-022A,2026-06-05T03:20:38.766048,1.00270778,.0005247,0.0667,4.1795,31.3990,275.1632,0,U,39163,999,4782,0,.6E-6,0
NAVSTAR 68 (USA 242),2013-023A,2026-06-03T05:21:02.647584,2.00563651,.01416367,54.5153,269.5426,50.9649,310.3017,0,U,39166,999,9560,0,-.27E-6,0
WGS F5 (USA 243),2013-024A,2026-06-04T16:44:10.181184,1.00269105,.00004355,0.0187,313.3297,91.0926,47.2585,0,U,39168,999,4705,0,-.272E-5,0
SES-6,2013-026A,2026-06-04T21:55:33.153024,1.00270772,.0002859,0.0176,359.7439,82.3503,99.6551,0,U,39172,999,4760,0,-.249E-5,0
COSMOS 2486,2013-028A,2026-06-05T04:40:36.368832,14.56189518,.001224,98.0138,124.0603,56.5601,303.6766,0,U,39177,999,68963,.76331E-4,.294E-5,0
O3B FM5,2013-031A,2026-06-05T01:07:03.809568,5.00116571,.0002996,0.0995,348.0517,73.3827,298.5969,0,U,39188,999,23643,0,-.16E-6,0
O3B FM4,2013-031B,2026-06-04T23:11:09.178080,5.00115305,.0005098,0.0437,346.0374,79.5383,294.4786,0,U,39189,999,23643,0,-.16E-6,0
O3B FM2,2013-031C,2026-06-04T19:57:40.309920,5.00116060,.0002763,0.0396,339.8868,91.5801,288.5642,0,U,39190,999,23649,0,-.16E-6,0
O3B PFM,2013-031D,2026-06-04T05:54:28.442592,5.00116230,.00053588,0.0687,354.4097,77.8736,287.7763,0,U,39191,999,23602,0,-.18E-6,0
IRIS,2013-033A,2026-06-05T01:02:30.973056,14.85860331,.0024478,97.9337,355.3586,2.3032,357.8291,0,U,39197,999,69857,.147E-3,.1231E-4,0
IRNSS-1A,2013-034A,2026-05-22T20:37:38.469792,1.00280263,.00166187,35.6649,64.2334,185.3754,355.4646,0,U,39199,999,4711,0,.59E-6,0
SJ-11-05,2013-035A,2026-06-05T04:06:06.992928,14.64876406,.0008636,98.2854,340.8997,275.1856,84.8360,0,U,39202,999,68747,.1421E-3,.71E-5,0
MUOS-2,2013-036A,2026-06-04T21:13:29.687232,1.00271077,.0050566,4.9717,45.5165,178.1538,159.9685,0,U,39206,999,4706,0,-.2E-7,0
SHIYAN-7 (SY-7),2013-037A,2026-06-05T00:13:35.609952,14.72270554,.0007811,98.0884,159.3118,175.3553,184.7728,0,U,39208,999,69041,.11761E-3,.693E-5,0
